{"type": "FeatureCollection", "features": [ {"type": "Feature", "properties": {"norad_id": 29930, "name": "FENGYUN 1C DEB", "group": "fengyun-1c-debris", "lat": 22.08487043967455, "lon": 51.56706748069928, "alt_km": 842.7864400509388, "timestamp": "2025-12-11T15:53:39.814827+00:00", "meta": {"OBJECT_NAME": "FENGYUN 1C DEB", "OBJECT_ID": "1999-025JC", "EPOCH": "2025-12-10T22:21:42.424128", "MEAN_MOTION": 14.2081338, "ECCENTRICITY": 0.016461, "INCLINATION": 99.0444, "RA_OF_ASC_NODE": 227.1139, "ARG_OF_PERICENTER": 58.7057, "MEAN_ANOMALY": 322.456, "EPHEMERIS_TYPE": 0, "CLASSIFICATION_TYPE": "U", "NORAD_CAT_ID": 29930, "ELEMENT_SET_NO": 999, "REV_AT_EPOCH": 97865, "BSTAR": 0.00033506, "MEAN_MOTION_DOT": 7.83e-06, "MEAN_MOTION_DDOT": 0}, "tle": {"line1": "1 29930U 99025JC  25344.93174102  .00000783  00000+0  33506-3 0  9990", "line2": "2 29930  99.0444 227.1139 0164610  58.7057 322.4560 14.20813380978657"}}, "geometry": {"type": "Point", "coordinates": [51.56706748069928, 22.08487043967455]}}, {"type": "Feature", "properties": {"norad_id": 29931, "name": "FENGYUN 1C DEB", "group": "fengyun-1c-debris", "lat": -42.66227257900323, "lon": -167.26584664146034, "alt_km": 900.9714041570005, "timestamp": "2025-12-11T15:53:39.814837+00:00", "meta": {"OBJECT_NAME": "FENGYUN 1C DEB", "OBJECT_ID": "1999-025JD", "EPOCH": "2025-12-11T01:17:42.004896", "MEAN_MOTION": 14.0389116, "ECCENTRICITY": 0.00325904, "INCLINATION": 98.8596, "RA_OF_ASC_NODE": 20.4054, "ARG_OF_PERICENTER": 98.3224, "MEAN_ANOMALY": 291.8951, "EPHEMERIS_TYPE": 0, "CLASSIFICATION_TYPE": "U", "NORAD_CAT_ID": 29931, "ELEMENT_SET_NO": 999, "REV_AT_EPOCH": 96789, "BSTAR": 0.00025504951, "MEAN_MOTION_DOT": 3.61e-06, "MEAN_MOTION_DDOT": 0}, "tle": {"line1": "1 29931U 99025JD  25345.05395839  .00000361  00000+0  25505-3 0  9999", "line2": "2 29931  98.8596  20.4054 0032590  98.3224 291.8951 14.03891160967890"}}, "geometry": {"type": "Point", "coordinates": [-167.26584664146034, -42.66227257900323]}}, {"type": "Feature", "properties": {"norad_id": 29932, "name": "FENGYUN 1C DEB", "group": "fengyun-1c-debris", "lat": -80.23143010665251, "lon": 114.42909346152841, "alt_km": 870.8845693002577, "timestamp": "2025-12-11T15:53:39.814848+00:00", "meta": {"OBJECT_NAME": "FENGYUN 1C DEB", "OBJECT_ID": "1999-025JE", "EPOCH": "2025-12-10T23:31:49.915776", "MEAN_MOTION": 14.16759413, "ECCENTRICITY": 0.0038581, "INCLINATION": 98.6342, "RA_OF_ASC_NODE": 355.7179, "ARG_OF_PERICENTER": 75.3686, "MEAN_ANOMALY": 314.5456, "EPHEMERIS_TYPE": 0, "CLASSIFICATION_TYPE": "U", "NORAD_CAT_ID": 29932, "ELEMENT_SET_NO": 999, "REV_AT_EPOCH": 97559, "BSTAR": 0.00040156, "MEAN_MOTION_DOT": 7.67e-06, "MEAN_MOTION_DDOT": 0}, "tle": {"line1": "1 29932U 99025JE  25344.98043884  .00000767  00000+0  40156-3 0  9990", "line2": "2 29932  98.6342 355.7179 0038581  75.3686 314.5456 14.16759413975590"}}, "geometry": {"type": "Point", "coordinates": [114.42909346152841, -80.23143010665251]}}, {"type": "Feature", "properties": {"norad_id": 29933, "name": "FENGYUN 1C DEB", "group": "fengyun-1c-debris", "lat": 25.305291482828366, "lon": -87.03223792772206, "alt_km": 676.7124555600949, "timestamp": "2025-12-11T15:53:39.814858+00:00", "meta": {"OBJECT_NAME": "FENGYUN 1C DEB", "OBJECT_ID": "1999-025JF", "EPOCH": "2025-12-11T05:30:04.436064", "MEAN_MOTION": 14.65786878, "ECCENTRICITY": 0.00043044, "INCLINATION": 98.749, "RA_OF_ASC_NODE": 88.3313, "ARG_OF_PERICENTER": 335.0898, "MEAN_ANOMALY": 55.3793, "EPHEMERIS_TYPE": 0, "CLASSIFICATION_TYPE": "U", "NORAD_CAT_ID": 29933, "ELEMENT_SET_NO": 999, "REV_AT_EPOCH": 98483, "BSTAR": 0.005653349, "MEAN_MOTION_DOT": 0.00030917, "MEAN_MOTION_DDOT": 0}, "tle": {"line1": "1 29933U 99025JF  25345.22921801  .00030917  00000+0  56533-2 0  9998", "line2": "2 29933  98.7490  88.3313 0004304 335.0898  55.3793 14.65786878984832"}}, "geometry": {"type": "Point", "coordinates": [-87.03223792772206, 25.305291482828366]}}, {"type": "Feature", "properties": {"norad_id": 29934, "name": "FENGYUN 1C DEB", "group": "fengyun-1c-debris", "lat": 80.86443748893069, "lon": -70.41820241988222, "alt_km": 741.730983444324, "timestamp": "2025-12-11T15:53:39.814868+00:00", "meta": {"OBJECT_NAME": "FENGYUN 1C DEB", "OBJECT_ID": "1999-025JG", "EPOCH": "2025-12-11T02:20:40.000416", "MEAN_MOTION": 14.63761901, "ECCENTRICITY": 0.01007227, "INCLINATION": 98.9043, "RA_OF_ASC_NODE": 31.8328, "ARG_OF_PERICENTER": 257.357, "MEAN_ANOMALY": 101.6353, "EPHEMERIS_TYPE": 0, "CLASSIFICATION_TYPE": "U", "NORAD_CAT_ID": 29934, "ELEMENT_SET_NO": 999, "REV_AT_EPOCH": 99748, "BSTAR": 0.0013063595, "MEAN_MOTION_DOT": 7.275e-05, "MEAN_MOTION_DDOT": 0}, "tle": {"line1": "1 29934U 99025JG  25345.09768519  .00007275  00000+0  13064-2 0  9992", "line2": "2 29934  98.9043  31.8328 0100722 257.3570 101.6353 14.63761901997482"}}, "geometry": {"type": "Point", "coordinates": [-70.41820241988222, 80.86443748893069]}}, {"type": "Feature", "properties": {"norad_id": 29935, "name": "FENGYUN 1C DEB", "group": "fengyun-1c-debris", "lat": 48.19891555293016, "lon": 38.33361752915284, "alt_km": 947.3939247070148, "timestamp": "2025-12-11T15:53:39.814879+00:00", "meta": {"OBJECT_NAME": "FENGYUN 1C DEB", "OBJECT_ID": "1999-025JH", "EPOCH": "2025-12-11T04:02:16.773216", "MEAN_MOTION": 14.14236735, "ECCENTRICITY": 0.01501119, "INCLINATION": 98.4618, "RA_OF_ASC_NODE": 47.4492, "ARG_OF_PERICENTER": 220.6701, "MEAN_ANOMALY": 194.8609, "EPHEMERIS_TYPE": 0, "CLASSIFICATION_TYPE": "U", "NORAD_CAT_ID": 29935, "ELEMENT_SET_NO": 999, "REV_AT_EPOCH": 97520, "BSTAR": 0.00016816589, "MEAN_MOTION_DOT": 3.16e-06, "MEAN_MOTION_DDOT": 0}, "tle": {"line1": "1 29935U 99025JH  25345.16824969  .00000316  00000+0  16817-3 0  9992", "line2": "2 29935  98.4618  47.4492 0150111 220.6701 194.8609 14.14236735975209"}}, "geometry": {"type": "Point", "coordinates": [38.33361752915284, 48.19891555293016]}}, {"type": "Feature", "properties": {"norad_id": 29936, "name": "FENGYUN 1C DEB", "group": "fengyun-1c-debris", "lat": 6.612024392399358, "lon": 98.02734543214198, "alt_km": 857.3976074942375, "timestamp": "2025-12-11T15:53:39.814889+00:00", "meta": {"OBJECT_NAME": "FENGYUN 1C DEB", "OBJECT_ID": "1999-025JJ", "EPOCH": "2025-12-11T07:29:49.736544", "MEAN_MOTION": 14.35309739, "ECCENTRICITY": 0.01138983, "INCLINATION": 98.6562, "RA_OF_ASC_NODE": 98.6882, "ARG_OF_PERICENTER": 191.2753, "MEAN_ANOMALY": 168.5878, "EPHEMERIS_TYPE": 0, "CLASSIFICATION_TYPE": "U", "NORAD_CAT_ID": 29936, "ELEMENT_SET_NO": 999, "REV_AT_EPOCH": 98910, "BSTAR": 0.00037201529, "MEAN_MOTION_DOT": 1.1e-05, "MEAN_MOTION_DDOT": 0}, "tle": {"line1": "1 29936U 99025JJ  25345.31238121  .00001100  00000+0  37202-3 0  9992", "line2": "2 29936  98.6562  98.6882 0113898 191.2753 168.5878 14.35309739989100"}}, "geometry": {"type": "Point", "coordinates": [98.02734543214198, 6.612024392399358]}}, {"type": "Feature", "properties": {"norad_id": 29937, "name": "FENGYUN 1C DEB", "group": "fengyun-1c-debris", "lat": -46.05113005276946, "lon": 177.46011117529136, "alt_km": 907.253195574277, "timestamp": "2025-12-11T15:53:39.814899+00:00", "meta": {"OBJECT_NAME": "FENGYUN 1C DEB", "OBJECT_ID": "1999-025JK", "EPOCH": "2025-12-11T01:15:29.750688", "MEAN_MOTION": 14.04361219, "ECCENTRICITY": 0.00324486, "INCLINATION": 98.8032, "RA_OF_ASC_NODE": 6.1198, "ARG_OF_PERICENTER": 26.3071, "MEAN_ANOMALY": 359.0576, "EPHEMERIS_TYPE": 0, "CLASSIFICATION_TYPE": "U", "NORAD_CAT_ID": 29937, "ELEMENT_SET_NO": 999, "REV_AT_EPOCH": 96912, "BSTAR": 7.5678967e-05, "MEAN_MOTION_DOT": 7.8e-07, "MEAN_MOTION_DDOT": 0}, "tle": {"line1": "1 29937U 99025JK  25345.05242767  .00000078  00000+0  75679-4 0  9999", "line2": "2 29937  98.8032   6.1198 0032448  26.3071 359.0576 14.04361219969120"}}, "geometry": {"type": "Point", "coordinates": [177.46011117529136, -46.05113005276946]}}, {"type": "Feature", "properties": {"norad_id": 29938, "name": "FENGYUN 1C DEB", "group": "fengyun-1c-debris", "lat": 38.79980131096789, "lon": 162.85971017006173, "alt_km": 888.7970403794534, "timestamp": "2025-12-11T15:53:39.814909+00:00", "meta": {"OBJECT_NAME": "FENGYUN 1C DEB", "OBJECT_ID": "1999-025JL", "EPOCH": "2025-12-11T05:17:49.155648", "MEAN_MOTION": 14.07456683, "ECCENTRICITY": 0.00329173, "INCLINATION": 98.8021, "RA_OF_ASC_NODE": 335.2733, "ARG_OF_PERICENTER": 315.141, "MEAN_ANOMALY": 109.4006, "EPHEMERIS_TYPE": 0, "CLASSIFICATION_TYPE": "U", "NORAD_CAT_ID": 29938, "ELEMENT_SET_NO": 999, "REV_AT_EPOCH": 97035, "BSTAR": 0.00025769545, "MEAN_MOTION_DOT": 3.93e-06, "MEAN_MOTION_DDOT": 0}, "tle": {"line1": "1 29938U 99025JL  25345.22070782  .00000393  00000+0  25770-3 0  9991", "line2": "2 29938  98.8021 335.2733 0032917 315.1410 109.4006 14.07456683970352"}}, "geometry": {"type": "Point", "coordinates": [162.85971017006173, 38.79980131096789]}}, {"type": "Feature", "properties": {"norad_id": 29939, "name": "FENGYUN 1C DEB", "group": "fengyun-1c-debris", "lat": 65.46319067761092, "lon": -175.09829109006233, "alt_km": 803.2824926565627, "timestamp": "2025-12-11T15:53:39.814919+00:00", "meta": {"OBJECT_NAME": "FENGYUN 1C DEB", "OBJECT_ID": "1999-025JM", "EPOCH": "2025-12-11T00:09:46.561824", "MEAN_MOTION": 14.12084042, "ECCENTRICITY": 0.00668808, "INCLINATION": 98.7098, "RA_OF_ASC_NODE": 344.6438, "ARG_OF_PERICENTER": 143.426, "MEAN_ANOMALY": 239.6663, "EPHEMERIS_TYPE": 0, "CLASSIFICATION_TYPE": "U", "NORAD_CAT_ID": 29939, "ELEMENT_SET_NO": 999, "REV_AT_EPOCH": 97436, "BSTAR": 9.2897663e-05, "MEAN_MOTION_DOT": 1.32e-06, "MEAN_MOTION_DDOT": 0}, "tle": {"line1": "1 29939U 99025JM  25345.00678891  .00000132  00000+0  92898-4 0  9990", "line2": "2 29939  98.7098 344.6438 0066880 143.4260 239.6663 14.12084042974365"}}, "geometry": {"type": "Point", "coordinates": [-175.09829109006233, 65.46319067761092]}}]}